[{"OBJECT_NAME":"STARLINK-34586","OBJECT_ID":"2025-158U","EPOCH":"2026-03-09T14:54:31.045824","MEAN_MOTION":15.05649193,"ECCENTRICITY":0.0002291,"INCLINATION":97.6022,"RA_OF_ASC_NODE":293.9897,"ARG_OF_PERICENTER":63.8089,"MEAN_ANOMALY":296.3373,"EPHEMERIS_TYPE":0,"CLASSIFICATION_TYPE":"U","NORAD_CAT_ID":64950,"ELEMENT_SET_NO":999,"REV_AT_EPOCH":3534,"BSTAR":0.00020921,"MEAN_MOTION_DOT":2.959e-5,"MEAN_MOTION_DDOT":0},{"OBJECT_NAME":"CZ-2D R\/B","OBJECT_ID":"2010-027B","EPOCH":"2026-03-09T19:01:31.304352","MEAN_MOTION":15.02332282,"ECCENTRICITY":0.00475082,"INCLINATION":97.9913,"RA_OF_ASC_NODE":95.0303,"ARG_OF_PERICENTER":252.3591,"MEAN_ANOMALY":107.2442,"EPHEMERIS_TYPE":0,"CLASSIFICATION_TYPE":"U","NORAD_CAT_ID":36597,"ELEMENT_SET_NO":999,"REV_AT_EPOCH":85595,"BSTAR":0.00022535675,"MEAN_MOTION_DOT":2.983e-5,"MEAN_MOTION_DDOT":0}]
